start=new Date('2022-01-25T00:00:00.000Z').valueOf();
sats=[{"TLE_LINE1":"1 45696U 20035AR  22024.34983391 -.00001143  00000-0 -57869-4 0  9990","SITE":"AFETR","OBJECT_TYPE":"PAYLOAD","MEAN_MOTION_DOT":"-0.00001143","LAUNCH_DATE":"2020-06-04","SEMIMAJOR_AXIS":"6925.377","MEAN_ELEMENT_THEORY":"SGP4","NORAD_CAT_ID":"45696","COUNTRY_CODE":"US","RA_OF_ASC_NODE":"334.3493","APOAPSIS":"548.469","MEAN_MOTION_DDOT":"0.0000000000000","MEAN_MOTION":"15.06390668","EPOCH":"2022-01-24T08:23:45.649824","INCLINATION":"53.0555","MEAN_ANOMALY":"302.9628","ECCENTRICITY":"0.00017710","TIME_SYSTEM":"UTC","FILE":"3281820","REV_AT_EPOCH":"9197","REF_FRAME":"TEME","CENTER_NAME":"EARTH","BSTAR":"-0.00005786900000","CLASSIFICATION_TYPE":"U","ELEMENT_SET_NO":"999","EPHEMERIS_TYPE":"0","TLE_LINE2":"2 45696  53.0555 334.3493 0001771  57.1531 302.9628 15.06390668 91972","GP_ID":"194530825","RCS_SIZE":"LARGE","PERIOD":"95.593","ARG_OF_PERICENTER":"57.1531","PERIAPSIS":"546.016","OBJECT_ID":"2020-035AR","DECAY_DATE":null,"OBJECT_NAME":"STARLINK-1422"},{"GP_ID":"194569302","RCS_SIZE":"LARGE","ELEMENT_SET_NO":"999","CLASSIFICATION_TYPE":"U","EPHEMERIS_TYPE":"0","TLE_LINE2":"2 45697  53.0543 312.0798 0001778  73.4499 286.6685 15.06416150 92340","FILE":"3282614","TIME_SYSTEM":"UTC","BSTAR":"0.00043889000000","CENTER_NAME":"EARTH","REF_FRAME":"TEME","REV_AT_EPOCH":"9234","DECAY_DATE":null,"OBJECT_NAME":"STARLINK-1351","PERIAPSIS":"545.933","OBJECT_ID":"2020-035AS","PERIOD":"95.591","ARG_OF_PERICENTER":"73.4499","NORAD_CAT_ID":"45697","MEAN_ELEMENT_THEORY":"SGP4","MEAN_MOTION_DOT":"0.00006264","SEMIMAJOR_AXIS":"6925.299","LAUNCH_DATE":"2020-06-04","TLE_LINE1":"1 45697U 20035AS  22024.85666060  .00006264  00000-0  43889-3 0  9991","OBJECT_TYPE":"PAYLOAD","SITE":"AFETR","MEAN_ANOMALY":"286.6685","INCLINATION":"53.0543","ECCENTRICITY":"0.00017780","MEAN_MOTION":"15.06416150","EPOCH":"2022-01-24T20:33:35.475840","MEAN_MOTION_DDOT":"0.0000000000000","COUNTRY_CODE":"US","RA_OF_ASC_NODE":"312.0798","APOAPSIS":"548.395"},{"OBJECT_NAME":"STARLINK-1370","DECAY_DATE":null,"ARG_OF_PERICENTER":"65.4494","PERIOD":"95.593","OBJECT_ID":"2020-035AT","PERIAPSIS":"546.082","RCS_SIZE":"LARGE","GP_ID":"194569046","CENTER_NAME":"EARTH","BSTAR":"0.00001538400000","REV_AT_EPOCH":"9233","REF_FRAME":"TEME","FILE":"3282614","TIME_SYSTEM":"UTC","TLE_LINE2":"2 45698  53.0544 312.4337 0001663  65.4494 294.6668 15.06393510 92337","ELEMENT_SET_NO":"999","CLASSIFICATION_TYPE":"U","EPHEMERIS_TYPE":"0","EPOCH":"2022-01-24T18:42:07.658784","MEAN_MOTION":"15.06393510","ECCENTRICITY":"0.00016630","MEAN_ANOMALY":"294.6668","INCLINATION":"53.0544","APOAPSIS":"548.385","COUNTRY_CODE":"US","RA_OF_ASC_NODE":"312.4337","MEAN_MOTION_DDOT":"0.0000000000000","MEAN_ELEMENT_THEORY":"SGP4","NORAD_CAT_ID":"45698","OBJECT_TYPE":"PAYLOAD","TLE_LINE1":"1 45698U 20035AT  22024.77925531 -.00000052  00000-0  15384-4 0  9994","SITE":"AFETR","LAUNCH_DATE":"2020-06-04","SEMIMAJOR_AXIS":"6925.368","MEAN_MOTION_DOT":"-0.00000052"},{"OBJECT_NAME":"STARLINK-1398","DECAY_DATE":null,"OBJECT_ID":"2020-035AU","PERIAPSIS":"545.999","ARG_OF_PERICENTER":"65.3341","PERIOD":"95.592","RCS_SIZE":"LARGE","GP_ID":"194568301","TLE_LINE2":"2 45699  53.0566 312.4728 0001749  65.3341 294.7830 15.06401030 92329","ELEMENT_SET_NO":"999","CLASSIFICATION_TYPE":"U","EPHEMERIS_TYPE":"0","REV_AT_EPOCH":"9232","REF_FRAME":"TEME","BSTAR":"0.00013999000000","CENTER_NAME":"EARTH","TIME_SYSTEM":"UTC","FILE":"3282614","ECCENTRICITY":"0.00017490","MEAN_ANOMALY":"294.7830","INCLINATION":"53.0566","EPOCH":"2022-01-24T18:26:10.377888","MEAN_MOTION":"15.06401030","MEAN_MOTION_DDOT":"0.0000000000000","APOAPSIS":"548.422","COUNTRY_CODE":"US","RA_OF_ASC_NODE":"312.4728","NORAD_CAT_ID":"45699","MEAN_ELEMENT_THEORY":"SGP4","SEMIMAJOR_AXIS":"6925.345","LAUNCH_DATE":"2020-06-04","MEAN_MOTION_DOT":"0.00001804","TLE_LINE1":"1 45699U 20035AU  22024.76817567  .00001804  00000-0  13999-3 0  9997","SITE":"AFETR","OBJECT_TYPE":"PAYLOAD"},{"GP_ID":"194530326","RCS_SIZE":"LARGE","EPHEMERIS_TYPE":"0","ELEMENT_SET_NO":"999","CLASSIFICATION_TYPE":"U","TLE_LINE2":"2 45700  53.0538 314.8886 0001568  92.2682 267.8487 15.06412205 92244","FILE":"3281820","TIME_SYSTEM":"UTC","BSTAR":"0.00005200200000","CENTER_NAME":"EARTH","REV_AT_EPOCH":"9224","REF_FRAME":"TEME","DECAY_DATE":null,"OBJECT_NAME":"STARLINK-1400","PERIAPSIS":"546.090","OBJECT_ID":"2020-035AV","PERIOD":"95.591","ARG_OF_PERICENTER":"92.2682","NORAD_CAT_ID":"45700","MEAN_ELEMENT_THEORY":"SGP4","MEAN_MOTION_DOT":"0.00000493","SEMIMAJOR_AXIS":"6925.311","LAUNCH_DATE":"2020-06-04","TLE_LINE1":"1 45700U 20035AV  22024.23372561  .00000493  00000-0  52002-4 0  9994","SITE":"AFETR","OBJECT_TYPE":"PAYLOAD","INCLINATION":"53.0538","MEAN_ANOMALY":"267.8487","ECCENTRICITY":"0.00015680","MEAN_MOTION":"15.06412205","EPOCH":"2022-01-24T05:36:33.892704","MEAN_MOTION_DDOT":"0.0000000000000","COUNTRY_CODE":"US","RA_OF_ASC_NODE":"314.8886","APOAPSIS":"548.262"},{"RCS_SIZE":"LARGE","GP_ID":"194568803","BSTAR":"0.00005754200000","CENTER_NAME":"EARTH","REF_FRAME":"TEME","REV_AT_EPOCH":"9232","TIME_SYSTEM":"UTC","FILE":"3282614","TLE_LINE2":"2 45701  53.0531 312.3473 0001395  55.9680 304.1441 15.06399030 92329","EPHEMERIS_TYPE":"0","ELEMENT_SET_NO":"999","CLASSIFICATION_TYPE":"U","OBJECT_NAME":"STARLINK-1403","DECAY_DATE":null,"ARG_OF_PERICENTER":"55.9680","PERIOD":"95.592","OBJECT_ID":"2020-035AW","PERIAPSIS":"546.250","MEAN_ELEMENT_THEORY":"SGP4","NORAD_CAT_ID":"45701","SITE":"AFETR","TLE_LINE1":"1 45701U 20035AW  22024.79398327  .00000576  00000-0  57542-4 0  9990","OBJECT_TYPE":"PAYLOAD","LAUNCH_DATE":"2020-06-04","SEMIMAJOR_AXIS":"6925.352","MEAN_MOTION_DOT":"0.00000576","EPOCH":"2022-01-24T19:03:20.154528","MEAN_MOTION":"15.06399030","ECCENTRICITY":"0.00013950","MEAN_ANOMALY":"304.1441","INCLINATION":"53.0531","APOAPSIS":"548.183","COUNTRY_CODE":"US","RA_OF_ASC_NODE":"312.3473","MEAN_MOTION_DDOT":"0.0000000000000"},{"MEAN_ELEMENT_THEORY":"SGP4","NORAD_CAT_ID":"45702","SITE":"AFETR","TLE_LINE1":"1 45702U 20035AX  22024.84190051 -.00004206  00000-0 -26366-3 0  9996","OBJECT_TYPE":"PAYLOAD","MEAN_MOTION_DOT":"-0.00004206","SEMIMAJOR_AXIS":"6925.374","LAUNCH_DATE":"2020-06-04","MEAN_MOTION":"15.06391553","EPOCH":"2022-01-24T20:12:20.204064","INCLINATION":"53.0538","MEAN_ANOMALY":"295.4320","ECCENTRICITY":"0.00016160","COUNTRY_CODE":"US","RA_OF_ASC_NODE":"312.1415","APOAPSIS":"548.359","MEAN_MOTION_DDOT":"0.0000000000000","GP_ID":"194569546","RCS_SIZE":"LARGE","TIME_SYSTEM":"UTC","FILE":"3282614","CENTER_NAME":"EARTH","BSTAR":"-0.00026366000000","REV_AT_EPOCH":"9233","REF_FRAME":"TEME","ELEMENT_SET_NO":"999","EPHEMERIS_TYPE":"0","CLASSIFICATION_TYPE":"U","TLE_LINE2":"2 45702  53.0538 312.1415 0001616  64.6836 295.4320 15.06391553 92338","DECAY_DATE":null,"OBJECT_NAME":"STARLINK-1405","PERIOD":"95.593","ARG_OF_PERICENTER":"64.6836","PERIAPSIS":"546.120","OBJECT_ID":"2020-035AX"},{"DECAY_DATE":null,"OBJECT_NAME":"STARLINK-1407","PERIAPSIS":"545.993","OBJECT_ID":"2020-035AY","PERIOD":"95.593","ARG_OF_PERICENTER":"71.4851","GP_ID":"194567802","RCS_SIZE":"LARGE","ELEMENT_SET_NO":"999","EPHEMERIS_TYPE":"0","CLASSIFICATION_TYPE":"U","TLE_LINE2":"2 45703  53.0555 312.4662 0001788  71.4851 288.6332 15.06394155 92325","FILE":"3282614","TIME_SYSTEM":"UTC","BSTAR":"-0.00008439800000","CENTER_NAME":"EARTH","REF_FRAME":"TEME","REV_AT_EPOCH":"9232","MEAN_ANOMALY":"288.6332","INCLINATION":"53.0555","ECCENTRICITY":"0.00017880","MEAN_MOTION":"15.06394155","EPOCH":"2022-01-24T18:31:29.902368","MEAN_MOTION_DDOT":"0.0000000000000","COUNTRY_CODE":"US","RA_OF_ASC_NODE":"312.4662","APOAPSIS":"548.470","NORAD_CAT_ID":"45703","MEAN_ELEMENT_THEORY":"SGP4","MEAN_MOTION_DOT":"-0.00001538","SEMIMAJOR_AXIS":"6925.366","LAUNCH_DATE":"2020-06-04","TLE_LINE1":"1 45703U 20035AY  22024.77187387 -.00001538  00000-0 -84398-4 0  9992","OBJECT_TYPE":"PAYLOAD","SITE":"AFETR"},{"ECCENTRICITY":"0.00018490","MEAN_ANOMALY":"294.8137","INCLINATION":"53.0594","EPOCH":"2022-01-24T20:44:08.856960","MEAN_MOTION":"15.06399192","MEAN_MOTION_DDOT":"0.0000000000000","APOAPSIS":"548.497","RA_OF_ASC_NODE":"342.0298","COUNTRY_CODE":"US","NORAD_CAT_ID":"45704","MEAN_ELEMENT_THEORY":"SGP4","LAUNCH_DATE":"2020-06-04","SEMIMAJOR_AXIS":"6925.351","MEAN_MOTION_DOT":"-0.00001395","SITE":"AFETR","TLE_LINE1":"1 45704U 20035AZ  22024.86399140 -.00001395  00000-0 -74761-4 0  9999","OBJECT_TYPE":"PAYLOAD","OBJECT_NAME":"STARLINK-1409","DECAY_DATE":null,"OBJECT_ID":"2020-035AZ","PERIAPSIS":"545.936","ARG_OF_PERICENTER":"65.3044","PERIOD":"95.592","RCS_SIZE":"LARGE","GP_ID":"194568052","TLE_LINE2":"2 45704  53.0594 342.0298 0001849  65.3044 294.8137 15.06399192 91920","ELEMENT_SET_NO":"999","CLASSIFICATION_TYPE":"U","EPHEMERIS_TYPE":"0","REV_AT_EPOCH":"9192","REF_FRAME":"TEME","CENTER_NAME":"EARTH","BSTAR":"-0.00007476100000","FILE":"3282614","TIME_SYSTEM":"UTC"},{"MEAN_MOTION_DDOT":"0.0000000000000","RA_OF_ASC_NODE":"341.9289","COUNTRY_CODE":"US","APOAPSIS":"548.428","INCLINATION":"53.0551","MEAN_ANOMALY":"293.1119","ECCENTRICITY":"0.00017430","MEAN_MOTION":"15.06397618","EPOCH":"2022-01-24T21:22:39.473760","MEAN_MOTION_DOT":"0.00000166","LAUNCH_DATE":"2020-06-04","SEMIMAJOR_AXIS":"6925.356","OBJECT_TYPE":"PAYLOAD","TLE_LINE1":"1 45705U 20035BA  22024.89073465  .00000166  00000-0  30031-4 0  9997","SITE":"AFETR","NORAD_CAT_ID":"45705","MEAN_ELEMENT_THEORY":"SGP4","PERIAPSIS":"546.014","OBJECT_ID":"2020-035BA","PERIOD":"95.592","ARG_OF_PERICENTER":"67.0054","DECAY_DATE":null,"OBJECT_NAME":"STARLINK-1410","CLASSIFICATION_TYPE":"U","ELEMENT_SET_NO":"999","EPHEMERIS_TYPE":"0","TLE_LINE2":"2 45705  53.0551 341.9289 0001743  67.0054 293.1119 15.06397618 91917","TIME_SYSTEM":"UTC","FILE":"3282614","REV_AT_EPOCH":"9191","REF_FRAME":"TEME","CENTER_NAME":"EARTH","BSTAR":"0.00003003100000","GP_ID":"194569303","RCS_SIZE":"LARGE"}];
